ONEWEB-0205             
1 48226U 21031S   25264.59420733  .00000299  00000+0  77185-3 0  9991
2 48226  87.9079 343.1781 0002026 103.2560 256.8796 13.14504424212981
ONEWEB-0206             
1 48227U 21031T   25264.49112774 -.00000175  00000+0 -50675-3 0  9994
2 48227  87.9087 343.1817 0001707  98.2132 261.9192 13.14505278212923
ONEWEB-0182             
1 48228U 21031U   25264.48637739 -.00000146  00000+0 -42954-3 0  9996
2 48228  87.9078 343.2252 0002016  95.3573 264.7787 13.14504436213139
ONEWEB-0186             
1 48229U 21031V   25264.49747494 -.00000080  00000+0 -25017-3 0  9996
2 48229  87.9088 343.1867 0001911 102.8158 257.3186 13.14504437213084
ONEWEB-0181             
1 48230U 21031W   25264.47527757 -.00000134  00000+0 -39704-3 0  9992
2 48230  87.9064 343.2596 0001877 105.9804 254.1533 13.14503724212935
ONEWEB-0188             
1 48231U 21031X   25264.58944372  .00000427  00000+0  11181-2 0  9992
2 48231  87.9079 343.2307 0001456 102.8436 257.2857 13.14504306212853
ONEWEB-0220             
1 48232U 21031Y   25264.47686468 -.00000235  00000+0 -66837-3 0  9998
2 48232  87.9084 343.1920 0002096 102.2949 257.8415 13.14502789213102
ONEWEB-0165             
1 48233U 21031Z   25264.58152270  .00000212  00000+0  53700-3 0  9998
2 48233  87.9067 343.2108 0001978 104.7859 255.3490 13.14503364213070
